TEVEL2-3                
1 63218U 25052J   26068.64540225  .00020365  00000+0  69446-3 0  9991
2 63218  97.3994 324.7775 0004761 105.7353 254.4413 15.30377031 54855
STARLINK-36146          
1 67426U 26005Y   26068.50435436  .00032894  00000+0  11988-2 0  9994
2 67426  42.9999 239.4128 0002068 283.3401  76.7220 15.27600398  8659
